NORAD_CAT_ID,OBJECT_NAME,OBJECT_TYPE,EPOCH,MEAN_MOTION,ECCENTRICITY,INCLINATION,RA_OF_ASC_NODE,ARG_OF_PERICENTER,MEAN_ANOMALY,BSTAR,MEAN_MOTION_DOT,MEAN_MOTION_DDOT,TLE_LINE0,TLE_LINE1,TLE_LINE2,SEMIMAJOR_AXIS,PERIOD,APOGEE,PERIGEE,DECAYED
49437.0,STARLINK-3130,PAYLOAD,2022-05-10 20:06:02,15.08839283,0.0002246,53.2187,8.8193,40.4439,319.672,4.1282e-05,3.69e-06,0.0,0 STARLINK-3130,1 49437U 21104AF  22130.83752332  .00000369  00000-0  41282-4 0  9995,2 49437  53.2187   8.8193 0002246  40.4439 319.6720 15.08839283 27736,6917.8830000000025,95.438,541.3009999999998,538.194,0.0
49437.0,STARLINK-3130,PAYLOAD,2022-05-11 22:00:00,15.08828073,0.0002098,53.2179,3.9763,43.6201,61.4732,-0.00047047,-7.766e-05,0.0,0 STARLINK-3130,1 49437U 21104AF  22131.91667824 -.00007766  00000-0 -47047-3 0  9990,2 49437  53.2179   3.9763 0002098  43.6201  61.4732 15.08828073 28970,6917.917,95.438,541.2330000000002,538.33,0.0
49437.0,STARLINK-3130,PAYLOAD,2022-05-12 14:00:01,15.08834178,0.0001977,53.2179,0.9819,47.5248,80.7439,0.0024285,0.00038568,0.0,0 STARLINK-3130,1 49437U 21104AF  22132.58334491  .00038568  00000-0  24285-2 0  9995,2 49437  53.2179   0.9819 0001977  47.5248  80.7439 15.08834178  1307,6917.898,95.438,541.131,538.396,0.0
49437.0,STARLINK-3130,PAYLOAD,2022-05-12 20:00:01,15.08881595,0.000208,53.2179,359.8611,44.0221,2.9482,-0.004051,-0.0006426,0.0,0 STARLINK-3130,1 49437U 21104AF  22132.83334491 -.00064260  00000-0 -40510-2 0  9992,2 49437  53.2179 359.8611 0002080  44.0221   2.9482 15.08881595 29110,6917.753000000002,95.435,541.057,538.179,0.0
49437.0,STARLINK-3130,PAYLOAD,2022-05-12 22:00:00,15.088598,0.0002115,53.2179,359.4874,42.8145,97.0674,-0.0020767,-0.00033206,0.0,0 STARLINK-3130,1 49437U 21104AF  22132.91667824 -.00033206  00000-0 -20767-2 0  9998,2 49437  53.2179 359.4874 0002115  42.8145  97.0674 15.08859800  1300,6917.82,95.436,541.148,538.222,0.0
49437.0,STARLINK-3130,PAYLOAD,2022-05-13 14:00:01,15.08818573,0.0001891,53.2181,356.4929,43.7573,119.325,0.001773,0.00028026,0.0,0 STARLINK-3130,1 49437U 21104AF  22133.58334491  .00028026  00000-0  17730-2 0  9991,2 49437  53.2181 356.4929 0001891  43.7573 119.3250 15.08818573 29227,6917.946,95.439,541.119,538.503,0.0
49437.0,STARLINK-3130,PAYLOAD,2022-05-13 22:00:00,15.08830322,0.0002097,53.2181,354.9984,39.9233,134.7424,0.00053795,8.282e-05,0.0,0 STARLINK-3130,1 49437U 21104AF  22133.91667824  .00008282  00000-0  53795-3 0  9991,2 49437  53.2181 354.9984 0002097  39.9233 134.7424 15.08830322  1309,6917.91,95.438,541.226,538.3240000000002,0.0
49437.0,STARLINK-3130,PAYLOAD,2022-05-14 06:00:00,15.08864797,0.0002012,53.218,353.5014,38.173,148.0735,-0.004143,-0.00065669,0.0,0 STARLINK-3130,1 49437U 21104AF  22134.25001157 -.00065669  00000-0 -41430-2 0  9996,2 49437  53.2180 353.5014 0002012  38.1730 148.0735 15.08864797 29325,6917.805,95.436,541.061,538.278,0.0
49437.0,STARLINK-3130,PAYLOAD,2022-05-14 14:00:01,15.08826877,0.0001869,53.2183,352.004,41.9644,155.8883,0.0024759,0.00039322,0.0,0 STARLINK-3130,1 49437U 21104AF  22134.58334491  .00039322  00000-0  24759-2 0  9992,2 49437  53.2183 352.0040 0001869  41.9644 155.8883 15.08826877 29378,6917.920999999999,95.438,541.078,538.493,0.0
49437.0,STARLINK-3130,PAYLOAD,2022-05-14 22:00:00,15.08856117,0.0002042,53.2182,350.5094,36.5639,172.8757,-0.0023534,-0.00037565,0.0,0 STARLINK-3130,1 49437U 21104AF  22134.91667824 -.00037565  00000-0 -23534-2 0  9997,2 49437  53.2182 350.5094 0002042  36.5639 172.8757 15.08856117  1309,6917.831,95.437,541.109,538.284,0.0
49437.0,STARLINK-3130,PAYLOAD,2022-05-15 06:00:00,15.08851496,0.0001903,53.2181,349.0121,34.1338,186.8988,-0.0025932,-0.00041336,0.0,0 STARLINK-3130,1 49437U 21104AF  22135.25001157 -.00041336  00000-0 -25932-2 0  9991,2 49437  53.2181 349.0121 0001903  34.1338 186.8988 15.08851496 29471,6917.845,95.437,541.0269999999998,538.394,0.0
49437.0,STARLINK-3130,PAYLOAD,2022-05-15 14:00:01,15.08819716,0.0001749,53.2184,347.5148,37.3274,195.3625,0.0010739,0.00016835,0.0,0 STARLINK-3130,1 49437U 21104AF  22135.58335648  .00016835  00000-0  10739-2 0  9995,2 49437  53.2184 347.5148 0001749  37.3274 195.3625 15.08819716  1302,6917.941999999999,95.439,541.0169999999998,538.597,0.0
49437.0,STARLINK-3130,PAYLOAD,2022-05-15 22:00:00,15.08820661,0.0001971,53.2182,346.0202,32.4458,211.7646,0.0016132,0.00025466,0.0,0 STARLINK-3130,1 49437U 21104AF  22135.91667824  .00025466  00000-0  16132-2 0  9999,2 49437  53.2182 346.0202 0001971  32.4458 211.7646 15.08820661 29578,6917.94,95.439,541.168,538.441,0.0
49437.0,STARLINK-3130,PAYLOAD,2022-05-16 14:00:01,15.08826042,0.0001796,53.2182,343.0257,39.6963,227.6919,0.0014481,0.00022825,0.0,0 STARLINK-3130,1 49437U 21104AF  22136.58334491  .00022825  00000-0  14481-2 0  9995,2 49437  53.2182 343.0257 0001796  39.6963 227.6919 15.08826042 29679,6917.9230000000025,95.438,541.031,538.5459999999998,0.0
49437.0,STARLINK-3130,PAYLOAD,2022-05-16 22:00:00,15.08832097,0.0001993,53.218,341.531,34.3751,244.6069,-0.00078258,-0.00012719,0.0,0 STARLINK-3130,1 49437U 21104AF  22136.91667824 -.00012719  00000-0 -78258-3 0  9997,2 49437  53.2180 341.5310 0001993  34.3751 244.6069 15.08832097  1308,6917.905,95.438,541.148,538.391,0.0
49437.0,STARLINK-3130,PAYLOAD,2022-05-17 06:00:00,15.0883782,0.0001849,53.2177,340.0335,33.5255,257.0339,-0.0010907,-0.00017604,0.0,0 STARLINK-3130,1 49437U 21104AF  22137.25001157 -.00017604  00000-0 -10907-2 0  9990,2 49437  53.2177 340.0335 0001849  33.5255 257.0339 15.08837820 29773,6917.887,95.438,541.031,538.4730000000002,0.0
49437.0,STARLINK-3130,PAYLOAD,2022-05-17 14:00:01,15.08842644,0.0001759,53.2179,338.5364,39.5943,262.6047,0.00014422,2.008e-05,0.0,0 STARLINK-3130,1 49437U 21104AF  22137.58335648  .00002008  00000-0  14422-3 0  9998,2 49437  53.2179 338.5364 0001759  39.5943 262.6047 15.08842644  1306,6917.871999999999,95.437,540.9540000000002,538.52,0.0
49437.0,STARLINK-3130,PAYLOAD,2022-05-17 20:00:01,15.08848798,0.0001979,53.2176,337.4157,36.4496,184.3954,-0.002141,-0.0003421,0.0,0 STARLINK-3130,1 49437U 21104AF  22137.83334491 -.00034210  00000-0 -21410-2 0  9997,2 49437  53.2176 337.4157 0001979  36.4496 184.3954 15.08848798 29868,6917.853,95.437,541.0880000000002,538.349,0.0
49437.0,STARLINK-3130,PAYLOAD,2022-05-17 22:00:01,15.08823192,0.0002037,53.2177,337.0418,36.4785,277.3352,0.0010016,0.00015681,0.0,0 STARLINK-3130,1 49437U 21104AF  22137.91668981  .00015681  00000-0  10016-2 0  9999,2 49437  53.2177 337.0418 0002037  36.4785 277.3352 15.08823192  1307,6917.932,95.439,541.206,538.388,0.0
49437.0,STARLINK-3130,PAYLOAD,2022-05-18 06:00:00,15.08849158,0.0001935,53.2173,335.5441,38.3289,287.0064,-0.00054913,-9.019e-05,0.0,0 STARLINK-3130,1 49437U 21104AF  22138.25001157 -.00009019  00000-0 -54913-3 0  9998,2 49437  53.2173 335.5441 0001935  38.3289 287.0064 15.08849158 29924,6917.852,95.437,541.056,538.379,0.0
49437.0,STARLINK-3130,PAYLOAD,2022-05-18 14:00:01,15.08872422,0.0001893,53.2176,334.0473,43.0319,293.8979,-0.0020355,-0.00032566,0.0,0 STARLINK-3130,1 49437U 21104AF  22138.58334491 -.00032566  00000-0 -20355-2 0  9999,2 49437  53.2176 334.0473 0001893  43.0319 293.8979 15.08872422  1308,6917.781,95.436,540.956,538.337,0.0
49437.0,STARLINK-3130,PAYLOAD,2022-05-18 22:00:00,15.08834886,0.0002115,53.2175,332.5526,38.8732,309.6814,-0.0005338999999999,-8.774e-05,0.0,0 STARLINK-3130,1 49437U 21104AF  22138.91667824 -.00008774  00000-0 -53390-3 0  9995,2 49437  53.2175 332.5526 0002115  38.8732 309.6814 15.08834886  1304,6917.896,95.438,541.224,538.298,0.0
49437.0,STARLINK-3130,PAYLOAD,2022-05-19 14:00:01,15.08851385,0.0001989,53.2174,329.5582,43.7141,328.064,-0.0020596,-0.00032928,0.0,0 STARLINK-3130,1 49437U 21104AF  22139.58335648 -.00032928  00000-0 -20596-2 0  9994,2 49437  53.2174 329.5582 0001989  43.7141 328.0640 15.08851385  1303,6917.846,95.437,541.087,538.335,0.0
49437.0,STARLINK-3130,PAYLOAD,2022-05-19 22:00:00,15.08809698,0.0002224,53.2175,328.0636,40.1889,343.1307,0.0032944,0.0005249,0.0,0 STARLINK-3130,1 49437U 21104AF  22139.91667824  .00052490  00000-0  32944-2 0  9999,2 49437  53.2175 328.0636 0002224  40.1889 343.1307 15.08809698 30176,6917.973000000001,95.439,541.377,538.299,0.0
49437.0,STARLINK-3130,PAYLOAD,2022-05-20 14:00:01,15.08852418,0.0002024,53.2176,325.0692,41.8465,4.6593,-0.00063543,-0.00010391,0.0,0 STARLINK-3130,1 49437U 21104AF  22140.58334491 -.00010391  00000-0 -63543-3 0  9991,2 49437  53.2176 325.0692 0002024  41.8465   4.6593 15.08852418 30288,6917.842,95.437,541.1080000000002,538.307,0.0
49437.0,STARLINK-3130,PAYLOAD,2022-05-20 22:00:00,15.08816245,0.0002195,53.2177,323.5747,35.7704,22.3484,0.0019416,0.00030728,0.0,0 STARLINK-3130,1 49437U 21104AF  22140.91667824  .00030728  00000-0  19416-2 0  9990,2 49437  53.2177 323.5747 0002195  35.7704  22.3484 15.08816245  1305,6917.953,95.439,541.336,538.3,0.0
49437.0,STARLINK-3130,PAYLOAD,2022-05-21 06:00:00,15.0883062,0.0002079,53.2178,322.0765,38.5224,31.1824,-0.0010003,-0.00016169,0.0,0 STARLINK-3130,1 49437U 21104AF  22141.25001157 -.00016169  00000-0 -10003-2 0  9997,2 49437  53.2178 322.0765 0002079  38.5224  31.1824 15.08830620  1308,6917.909000000002,95.438,541.212,538.336,0.0
49437.0,STARLINK-3130,PAYLOAD,2022-05-21 14:00:01,15.08842822,0.0002124,53.218,320.5802,41.1003,40.2388,-6.8495e-05,-1.378e-05,0.0,0 STARLINK-3130,1 49437U 21104AF  22141.58335648 -.00001378  00000-0 -68495-4 0  9994,2 49437  53.2180 320.5802 0002124  41.1003  40.2388 15.08842822 30431,6917.871999999999,95.437,541.206,538.2669999999998,0.0
49437.0,STARLINK-3130,PAYLOAD,2022-05-21 22:00:00,15.0881857,0.0002278,53.218,319.0856,36.0622,56.8169,0.0014749,0.0002325,0.0,0 STARLINK-3130,1 49437U 21104AF  22141.91667824  .00023250  00000-0  14749-2 0  9997,2 49437  53.2180 319.0856 0002278  36.0622  56.8169 15.08818570  1300,6917.946,95.439,541.387,538.235,0.0
